{"type": "FeatureCollection", "features": [ {"type": "Feature", "properties": {"norad_id": 66584, "name": "STARLINK-35939", "group": "last-30-days", "lat": 14.952290861518366, "lon": -177.89030608889288, "alt_km": 362.72919999409805, "timestamp": "2025-12-05T04:52:14.142777+00:00", "meta": {"OBJECT_NAME": "STARLINK-35939", "OBJECT_ID": "2025-268AD", "EPOCH": "2025-12-04T18:00:02.000160", "MEAN_MOTION": 15.69900121, "ECCENTRICITY": 0.0001688, "INCLINATION": 42.999, "RA_OF_ASC_NODE": 168.1787, "ARG_OF_PERICENTER": 267.1993, "MEAN_ANOMALY": 73.8217, "EPHEMERIS_TYPE": 0, "CLASSIFICATION_TYPE": "U", "NORAD_CAT_ID": 66584, "ELEMENT_SET_NO": 999, "REV_AT_EPOCH": 338, "BSTAR": -0.017733, "MEAN_MOTION_DOT": -0.01937064, "MEAN_MOTION_DDOT": 0}, "tle": {"line1": "1 66584U 25268AD  25338.75002315 -.01937064  00000+0 -17733-1 0  9999", "line2": "2 66584  42.9990 168.1787 0001688 267.1993  73.8217 15.69900121  3388"}}, "geometry": {"type": "Point", "coordinates": [-177.89030608889288, 14.952290861518366]}}, {"type": "Feature", "properties": {"norad_id": 66585, "name": "STARLINK-35963", "group": "last-30-days", "lat": 16.20043292638564, "lon": -176.38168736843167, "alt_km": 362.54899723333983, "timestamp": "2025-12-05T04:52:14.142785+00:00", "meta": {"OBJECT_NAME": "STARLINK-35963", "OBJECT_ID": "2025-268AE", "EPOCH": "2025-12-04T18:00:02.000160", "MEAN_MOTION": 15.69907438, "ECCENTRICITY": 0.0001646, "INCLINATION": 42.9988, "RA_OF_ASC_NODE": 168.1742, "ARG_OF_PERICENTER": 267.8475, "MEAN_ANOMALY": 75.0855, "EPHEMERIS_TYPE": 0, "CLASSIFICATION_TYPE": "U", "NORAD_CAT_ID": 66585, "ELEMENT_SET_NO": 999, "REV_AT_EPOCH": 338, "BSTAR": -0.017794, "MEAN_MOTION_DOT": -0.01943403, "MEAN_MOTION_DDOT": 0}, "tle": {"line1": "1 66585U 25268AE  25338.75002315 -.01943403  00000+0 -17794-1 0  9991", "line2": "2 66585  42.9988 168.1742 0001646 267.8475  75.0855 15.69907438  3383"}}, "geometry": {"type": "Point", "coordinates": [-176.38168736843167, 16.20043292638564]}}, {"type": "Feature", "properties": {"norad_id": 66586, "name": "TJS-21", "group": "last-30-days", "lat": 39.81635547540813, "lon": -145.791060801616, "alt_km": 38714.631663528424, "timestamp": "2025-12-05T04:52:14.142799+00:00", "meta": {"OBJECT_NAME": "TJS-21", "OBJECT_ID": "2025-269A", "EPOCH": "2025-11-22T00:38:56.616288", "MEAN_MOTION": 2.0099221, "ECCENTRICITY": 0.75179873, "INCLINATION": 51.0366, "RA_OF_ASC_NODE": 174.7096, "ARG_OF_PERICENTER": 225.0489, "MEAN_ANOMALY": 41.6572, "EPHEMERIS_TYPE": 0, "CLASSIFICATION_TYPE": "U", "NORAD_CAT_ID": 66586, "ELEMENT_SET_NO": 999, "REV_AT_EPOCH": 2, "BSTAR": 0.00053569978, "MEAN_MOTION_DOT": 3.197e-05, "MEAN_MOTION_DDOT": 0}, "tle": {"line1": "1 66586U 25269A   25326.02704417  .00003197  00000+0  53570-3 0  9990", "line2": "2 66586  51.0366 174.7096 7517987 225.0489  41.6572  2.00992210    24"}}, "geometry": {"type": "Point", "coordinates": [-145.791060801616, 39.81635547540813]}}, {"type": "Feature", "properties": {"norad_id": 66587, "name": "CZ-3B R/B", "group": "last-30-days", "lat": 45.7174242231081, "lon": -133.3641576355783, "alt_km": 33202.38761063184, "timestamp": "2025-12-05T04:52:14.142815+00:00", "meta": {"OBJECT_NAME": "CZ-3B R/B", "OBJECT_ID": "2025-269B", "EPOCH": "2025-12-02T10:16:46.437600", "MEAN_MOTION": 2.0223182, "ECCENTRICITY": 0.75203475, "INCLINATION": 51.3575, "RA_OF_ASC_NODE": 172.0321, "ARG_OF_PERICENTER": 226.8728, "MEAN_ANOMALY": 39.3228, "EPHEMERIS_TYPE": 0, "CLASSIFICATION_TYPE": "U", "NORAD_CAT_ID": 66587, "ELEMENT_SET_NO": 999, "REV_AT_EPOCH": 24, "BSTAR": 0.0019543247, "MEAN_MOTION_DOT": 0.00047329, "MEAN_MOTION_DDOT": -2.45602e-07}, "tle": {"line1": "1 66587U 25269B   25336.42831525  .00047329 -24560-6  19543-2 0  9998", "line2": "2 66587  51.3575 172.0321 7520347 226.8728  39.3228  2.02231820   242"}}, "geometry": {"type": "Point", "coordinates": [-133.3641576355783, 45.7174242231081]}}, {"type": "Feature", "properties": {"norad_id": 66588, "name": "STARLINK-36076", "group": "last-30-days", "lat": 20.803857515599354, "lon": 33.32914416166088, "alt_km": 341.01845228363527, "timestamp": "2025-12-05T04:52:14.142827+00:00", "meta": {"OBJECT_NAME": "STARLINK-36076", "OBJECT_ID": "2025-270A", "EPOCH": "2025-12-04T16:04:08.478048", "MEAN_MOTION": 15.7508018, "ECCENTRICITY": 0.0001968, "INCLINATION": 42.9983, "RA_OF_ASC_NODE": 240.6311, "ARG_OF_PERICENTER": 266.0968, "MEAN_ANOMALY": 93.9676, "EPHEMERIS_TYPE": 0, "CLASSIFICATION_TYPE": "U", "NORAD_CAT_ID": 66588, "ELEMENT_SET_NO": 999, "REV_AT_EPOCH": 308, "BSTAR": 0.0016177, "MEAN_MOTION_DOT": 0.00256176, "MEAN_MOTION_DDOT": 0}, "tle": {"line1": "1 66588U 25270A   25338.66954257  .00256176  00000+0  16177-2 0  9994", "line2": "2 66588  42.9983 240.6311 0001968 266.0968  93.9676 15.75080180  3084"}}, "geometry": {"type": "Point", "coordinates": [33.32914416166088, 20.803857515599354]}}, {"type": "Feature", "properties": {"norad_id": 66589, "name": "STARLINK-35447", "group": "last-30-days", "lat": 18.34656982004954, "lon": 36.53508435259534, "alt_km": 341.08344278202276, "timestamp": "2025-12-05T04:52:14.142836+00:00", "meta": {"OBJECT_NAME": "STARLINK-35447", "OBJECT_ID": "2025-270B", "EPOCH": "2025-12-04T16:03:09.961056", "MEAN_MOTION": 15.75079945, "ECCENTRICITY": 0.0001862, "INCLINATION": 42.998, "RA_OF_ASC_NODE": 240.626, "ARG_OF_PERICENTER": 262.6758, "MEAN_ANOMALY": 97.39, "EPHEMERIS_TYPE": 0, "CLASSIFICATION_TYPE": "U", "NORAD_CAT_ID": 66589, "ELEMENT_SET_NO": 999, "REV_AT_EPOCH": 319, "BSTAR": 0.0019354, "MEAN_MOTION_DOT": 0.00308504, "MEAN_MOTION_DDOT": 0}, "tle": {"line1": "1 66589U 25270B   25338.66886529  .00308504  00000+0  19354-2 0  9994", "line2": "2 66589  42.9980 240.6260 0001862 262.6758  97.3900 15.75079945  3194"}}, "geometry": {"type": "Point", "coordinates": [36.53508435259534, 18.34656982004954]}}, {"type": "Feature", "properties": {"norad_id": 66590, "name": "STARLINK-35429", "group": "last-30-days", "lat": 19.579469450331413, "lon": 34.94973719504199, "alt_km": 341.1718350204019, "timestamp": "2025-12-05T04:52:14.142845+00:00", "meta": {"OBJECT_NAME": "STARLINK-35429", "OBJECT_ID": "2025-270C", "EPOCH": "2025-12-04T16:03:38.989728", "MEAN_MOTION": 15.75057545, "ECCENTRICITY": 0.0002213, "INCLINATION": 42.9988, "RA_OF_ASC_NODE": 240.6296, "ARG_OF_PERICENTER": 268.2955, "MEAN_ANOMALY": 91.7661, "EPHEMERIS_TYPE": 0, "CLASSIFICATION_TYPE": "U", "NORAD_CAT_ID": 66590, "ELEMENT_SET_NO": 999, "REV_AT_EPOCH": 319, "BSTAR": 0.0020232, "MEAN_MOTION_DOT": 0.00322756, "MEAN_MOTION_DDOT": 0}, "tle": {"line1": "1 66590U 25270C   25338.66920127  .00322756  00000+0  20232-2 0  9991", "line2": "2 66590  42.9988 240.6296 0002213 268.2955  91.7661 15.75057545  3199"}}, "geometry": {"type": "Point", "coordinates": [34.94973719504199, 19.579469450331413]}}, {"type": "Feature", "properties": {"norad_id": 66591, "name": "STARLINK-36058", "group": "last-30-days", "lat": 17.170016285793718, "lon": 38.01417269890305, "alt_km": 341.9627300914408, "timestamp": "2025-12-05T04:52:14.142854+00:00", "meta": {"OBJECT_NAME": "STARLINK-36058", "OBJECT_ID": "2025-270D", "EPOCH": "2025-12-04T16:02:41.163072", "MEAN_MOTION": 15.75043824, "ECCENTRICITY": 0.0002602, "INCLINATION": 42.998, "RA_OF_ASC_NODE": 240.6243, "ARG_OF_PERICENTER": 283.7895, "MEAN_ANOMALY": 76.2684, "EPHEMERIS_TYPE": 0, "CLASSIFICATION_TYPE": "U", "NORAD_CAT_ID": 66591, "ELEMENT_SET_NO": 999, "REV_AT_EPOCH": 308, "BSTAR": 0.002088, "MEAN_MOTION_DOT": 0.00333331, "MEAN_MOTION_DDOT": 0}, "tle": {"line1": "1 66591U 25270D   25338.66853198  .00333331  00000+0  20880-2 0  9995", "line2": "2 66591  42.9980 240.6243 0002602 283.7895  76.2684 15.75043824  3087"}}, "geometry": {"type": "Point", "coordinates": [38.01417269890305, 17.170016285793718]}}, {"type": "Feature", "properties": {"norad_id": 66592, "name": "STARLINK-36066", "group": "last-30-days", "lat": 15.907778184012024, "lon": 39.56321995614679, "alt_km": 341.6740037754407, "timestamp": "2025-12-05T04:52:14.142863+00:00", "meta": {"OBJECT_NAME": "STARLINK-36066", "OBJECT_ID": "2025-270E", "EPOCH": "2025-12-04T16:02:11.616000", "MEAN_MOTION": 15.75068657, "ECCENTRICITY": 0.0002573, "INCLINATION": 42.9984, "RA_OF_ASC_NODE": 240.6198, "ARG_OF_PERICENTER": 265.0868, "MEAN_ANOMALY": 94.9708, "EPHEMERIS_TYPE": 0, "CLASSIFICATION_TYPE": "U", "NORAD_CAT_ID": 66592, "ELEMENT_SET_NO": 999, "REV_AT_EPOCH": 298, "BSTAR": 0.001887, "MEAN_MOTION_DOT": 0.00300347, "MEAN_MOTION_DDOT": 0}, "tle": {"line1": "1 66592U 25270E   25338.66819000  .00300347  00000+0  18870-2 0  9997", "line2": "2 66592  42.9984 240.6198 0002573 265.0868  94.9708 15.75068657  2984"}}, "geometry": {"type": "Point", "coordinates": [39.56321995614679, 15.907778184012024]}}, {"type": "Feature", "properties": {"norad_id": 66593, "name": "STARLINK-36031", "group": "last-30-days", "lat": 13.405297452193446, "lon": 42.546029788276016, "alt_km": 345.22100934974424, "timestamp": "2025-12-05T04:52:14.142874+00:00", "meta": {"OBJECT_NAME": "STARLINK-36031", "OBJECT_ID": "2025-270F", "EPOCH": "2025-12-04T16:01:12.652320", "MEAN_MOTION": 15.7491846, "ECCENTRICITY": 0.0006603, "INCLINATION": 42.9978, "RA_OF_ASC_NODE": 240.6163, "ARG_OF_PERICENTER": 319.9037, "MEAN_ANOMALY": 40.1344, "EPHEMERIS_TYPE": 0, "CLASSIFICATION_TYPE": "U", "NORAD_CAT_ID": 66593, "ELEMENT_SET_NO": 999, "REV_AT_EPOCH": 308, "BSTAR": 0.003472, "MEAN_MOTION_DOT": 0.00567567, "MEAN_MOTION_DDOT": 0}, "tle": {"line1": "1 66593U 25270F   25338.66750755  .00567567  00000+0  34720-2 0  9990", "line2": "2 66593  42.9978 240.6163 0006603 319.9037  40.1344 15.74918460  3081"}}, "geometry": {"type": "Point", "coordinates": [42.546029788276016, 13.405297452193446]}}]}